DELTA 2 R/B(1)          
1 20453U 90008B   25337.31487010  .00041182  00000+0  68320-3 0  9992
2 20453  35.6064  81.3467 0112536  92.3388 269.0234 15.44152302911172
COSMOS 2058             
1 20465U 90010A   25337.74803995  .00006595  00000+0  40030-3 0  9996
2 20465  82.4630 141.8756 0008522 311.2737  48.7758 15.10333714927752
SL-14 R/B               
1 20466U 90010B   25337.77440272  .00000703  00000+0  82523-4 0  9994
2 20466  82.5022 357.4677 0018318 254.8210 105.0979 14.83457853914262
SL-14 R/B               
1 20511U 90018B   25337.42997046  .00000769  00000+0  93754-4 0  9991
2 20511  82.5202 313.0668 0017643  52.3080 307.9730 14.82030737908322
HST                     
1 20580U 90037B   25337.38666278  .00010253  00000+0  35826-3 0  9997
2 20580  28.4702 336.1401 0002082 133.9439 226.1328 15.27839490758565
SL-16 R/B               
1 20625U 90046B   25337.76797235  .00000301  00000+0  18002-3 0  9997
2 20625  70.9982 139.3630 0011922  89.9302 270.3187 14.14998484834828
COSMOS 2084             
1 20663U 90055A   25337.33225918  .00004468  00000+0  32435-3 0  9990
2 20663  62.7910 304.0453 0033195 173.5135 186.6401 15.04920289921816
SL-6 R/B(2)             
1 20666U 90055D   25337.78583748  .00003389  00000+0  26472-3 0  9995
2 20666  62.7831 219.8380 0011917 301.6884  58.3053 15.03010680923775
SL-8 R/B                
1 20775U 90078B   25337.50411213  .00031137  00000+0  96466-3 0  9990
2 20775  82.9044 337.5748 0375038 336.9537  21.5219 14.85343652795001
SL-8 R/B                
1 21088U 91006B   25337.74352351  .00000097  00000+0  82477-4 0  9992
2 21088  82.9429 241.4039 0021510 306.4616 113.1046 13.77488465750868
OKEAN-3                 
1 21397U 91039A   25337.76742508  .00005109  00000+0  36710-3 0  9997
2 21397  82.5188  69.7312 0013127 298.4275  61.5627 15.04022546850611
COSMOS 2151             
1 21422U 91042A   25337.81572735  .00002776  00000+0  22293-3 0  9997
2 21422  82.4960 176.1026 0013365  29.1555 331.0412 14.99632276848823
